#dP2022  3 31  0  0  0.00000000      96 __u+U ITR14 FIT  IAC
## 2203 345600.00000000   900.00000000 59669 0.0000000000000
+  127   C01C02C03C04C05C06C07C08C09C10C11C12C13C14C16C19C20
+        C21C22C23C24C25C26C27C28C29C30C32C33C34C35C36C37C38
+        C39C40C41C42C43C44C45C46C60E01E02E03E04E05E07E08E09
+        E10E11E12E13E14E15E18E19E21E24E25E26E27E30E31E33E34
+        E36G01G02G03G04G05G06G07G08G09G10G11G12G13G14G15G16
+        G17G18G19G20G21G22G23G24G25G26G27G28G29G30G31G32J02
+        J03J07R01R02R03R04R05R06R07R08R09R10R11R12R13R14R15
+        R17R18R19R20R21R22R23R24  0  0  0  0  0  0  0  0  0
++        15 15 14 15 15  9  9 10  9  9  9  9  9  9  9  8  7
++         8  8  7  7  7  7  7  7  7  7  7  7  7  7  8  8  8
++         8  8  7  8  8  8  8  8 15  5  4  5  5  5  4  4  6
++         5  5  5  4  6  5  4  5  5  4  5  4  5  5  5  5  6
++         6  4  4  4  4  4  4  4  4  4  4  5  4  4  5  4  4
++         4  4  4  4  5  4  4  4  4  4  4  5  4  4  4  4  9
++         9 15  7  6  6  6  6 13  6  6  6 13  8  6  7  6  6
++         7  7  7  7  6  8 13  6  0  0  0  0  0  0  0  0  0
%c M  cc GPS ccc cccc cccc cccc cccc ccccc ccccc ccccc ccccc
%c cc cc ccc ccc cccc cccc cccc cccc ccccc ccccc ccccc ccccc
%f  0.0000000  0.000000000  0.00000000000  0.000000000000000
%f  0.0000000  0.000000000  0.00000000000  0.000000000000000
%i    0    0    0    0      0      0      0      0         0
%i    0    0    0    0      0      0      0      0         0
/* INFORMATION & ANALYSIS CENTER (IAC)            RAPID DATA
/* S/V CLOCKS ARE ALIGNED TO GNSS TIME                      
/* G:C1WC2W R:C1PC2P E:C1XC5X C:C2IC6I J:C1CC2S             
/* PCV:IGS14_2196 OL/AL:FES2004  NONE     YN ORB:CoN CLK:CoN
*  2022 03 31 20 15  0.00000000
PC01 -34298.438827  24520.274678   -190.000754 999999.999999
PC02   4383.283346  41976.432012    984.693226    172.517029
PC03 -14828.617596  39512.546310    133.472393   -563.505250
PC04 -39619.385399  14407.450185   -500.290513   -223.699685
PC05  21888.230486  36098.822526    826.933555   -277.386610
PC06  -2220.409269  28757.802762  30837.524101   -289.280164
PC07 -18033.144278  29316.977760 -24449.015166     64.816590
PC08 -11187.674931  40345.240665  -4301.398857    231.461839
PC09   7915.302357  33827.291708  24576.238567   -654.830437
PC10 -10040.099100  29538.159222 -28300.824865    137.539216
PC11 -16448.834512 -21550.335785   6729.923569    263.596345
PC12   -934.405889 -19080.831543  20377.796622   -632.090389
PC13  -4548.912094  41476.248026   5200.757340    -73.760315
PC14 -10778.399822 -12701.073173 -22369.821527    453.898122
PC16  -3664.935961  27371.106310  32097.453879    111.949600
PC19  19743.581621   6809.719377  18530.670265    882.013142
PC20   1885.850284  15940.923045  22850.061274   -862.848145
PC21  18266.087519 -16024.929163 -13678.268622    -31.156343
PC22  26900.951785  -6606.029236   3265.449971   -964.093836
PC23 -16934.561652   5964.187562  21361.756823   -937.021032
PC24    606.017061 -27041.236703   6906.213428   -949.867122
PC25 -12508.755080 -13926.660114  20692.941529   -757.722671
PC26  11082.570498 -23948.646481  -9144.507273    758.254489
PC27  -8023.147669  14005.660937 -22786.877259    700.662022
PC28 -20958.974559  -2017.940072 -18312.611073     49.959804
PC29  22376.108980  16454.924090   2734.494144    535.159494
PC30   9868.355305  21645.441579 -14618.190048    496.148347
PC32 -18171.893987  16193.137928  13682.280187   -965.198224
PC33 -19766.830794  -6723.238105 -18512.150232   -971.715708
PC34 -10673.269421 -21736.003674  13833.321348   -435.862434
PC35  21465.732847   2074.836428  17722.832289    207.734572
PC36  11931.219715  14694.635783 -20484.593719   -965.457087
PC37 -12189.064189  22954.137617  10144.521399   -931.158920
PC38 -14735.593755  37844.218757 -11026.417540    221.902222
PC39  -9050.808342  23245.842400  34036.834176     34.914872
PC40 -24570.992445  23537.623181 -25025.259408    256.991200
PC41 -26899.906199   6458.728700  -3613.251107   -969.393475
PC42   -821.775484 -16232.995646 -22631.819177   -944.495767
PC43 -22092.860199 -16895.687549  -2095.503830 999999.999999
PC44   7841.433054 -14190.751680  22698.126143    612.919256
PC45  16825.073418  -6314.812656 -21357.435858    719.333120
PC46    420.190864  26623.976650  -8289.010271   -247.437260
PC60   7293.253627  41524.476277  -1091.491132     -0.501497
PE01  22646.077946  -8048.817035 -17289.117145   -607.543848
PE02 -22661.553037   8189.344870  17171.296816    289.868886
PE03 -28737.273515   -418.632229   7110.319598   -543.206212
PE04  16744.716398 -12030.532350 -21228.414101   -996.611636
PE05 -24057.317922 -12870.854324 -11472.094256   -195.144216
PE07   5443.336536  17664.670032  23127.412588   -653.968602
PE08 -16347.128509  12150.452597  21487.090239   -504.565015
PE09  -5786.434375 -17507.052840 -23150.837624   -468.462704
PE10   1201.703395 -25459.689560  15041.340657   -503.864642
PE11  -6110.417481 -28389.646134   5662.752163   4083.887099
PE12   8195.909553 -18665.722080  21451.152587   4685.744290
PE13   5740.141266  28344.156066  -6341.742097    427.699926
PE14 -28779.679764  -9095.340126  -2578.340962  -1797.880941
PE15  -8162.218798  18565.291097 -21559.973639    754.433251
PE18  20293.403382  15304.095374  -7666.570897  -1618.552819
PE19  29118.476852   2215.236651  -4841.274871  -2247.855356
PE21  13487.977965   9837.170952 -24449.460157   -725.782806
PE24   5158.923560 -23607.122009  17095.427994   -535.896219
PE25 -13277.006606 -10086.663991  24456.326367   -568.771084
PE26  16496.335803  20687.347148  13279.605965   -977.085214
PE27  -3926.641748  23173.809580 -17986.963925   -265.814539
PE30 -19499.737805  22257.025394    -10.107071   -393.677448
PE31  18892.223488 -22771.032792    993.974697   -494.367441
PE33  17200.261319   2139.400134  24001.891314   -458.044893
PE34 -17155.449601  -1860.243438 -24054.924713 999999.999999
PE36 -16170.575766 -21403.542259 -12492.602995   -353.181855
PG01  13964.718882  -3998.710519  21936.737531    395.679378
PG02 -14408.956788 -17697.348583 -12809.796344   -652.806910
PG03  22063.935371 -11388.550821   9167.266448   -187.687167
PG04  23170.548800  -1177.533703 -12998.186356   -179.542758
PG05 -17599.724003  -2380.832047 -19956.768226    -76.661957
PG06  -5366.934085 -25967.426710    -38.179774    250.500699
PG07   7110.959753 -19916.921682 -15366.591105    318.580448
PG08  25967.323377   5398.093776   3478.045184    -62.063570
PG09  14854.479737 -10025.800365 -19678.146356   -346.573018
PG10  -6717.434892  20377.548219  15607.666671   -364.283112
PG11 -12737.814224 -18615.441514 -14040.663189 999999.999999
PG12 -22479.845306   7201.355109  11777.638426   -193.364310
PG13 -22767.557605 -13504.836353  -3239.605107    286.260878
PG14   8424.376345 -20464.935062  14621.631486    -98.898120
PG15 -26333.026289  -2420.292693   3499.712357    -72.490799
PG16  14342.370811   7603.042904 -21376.229179   -486.859934
PG17  -1863.035158 -16198.158079  21388.524247    594.474216
PG18  -7332.714245  19873.186760 -15961.990171    206.704293
PG19  -9883.254060 -17301.635840  17397.871505    138.355606
PG20 -11051.714029 -11123.575430 -21442.798297    516.045787
PG21  16820.133686   7454.039551  20038.010458    160.005441
PG22  12506.863969  17487.575207  16122.474804    236.166161
PG23 -15732.911613  20504.175820   5890.137549    -11.384938
PG24 -16104.994619   -164.549870  20871.474346    262.262288
PG25 -19655.506134  17628.830282    211.503888    305.867069
PG26   4663.219608  16440.814918 -20347.695589    195.153255
PG27  22223.947457  12844.919622  -7791.705787    171.042939
PG28    592.942249 -17798.289923  20293.056365    374.486217
PG29 -16669.804677   7189.372693 -19459.414432   -497.849725
PG30   1522.362031 -24986.632970  -8422.657701   -521.572189
PG31   6762.339494  25272.187715  -2883.003035   -171.408123
PG32   5969.606850  16660.145251  20000.322186    -95.915912
PJ02 -34136.400237  24588.282853   7754.259771     -2.374226
PJ03 -22182.077111  19525.264313 -25501.166483     -1.282927
PJ07 -25365.142208  33689.842365     62.369626      0.025575
PR01 -25059.206627   4642.837649   1255.440533      7.490602
PR02 -13709.438820  10666.192880  18701.367772    514.174615
PR03   5153.942956  10237.011041  22842.048058     54.097229
PR04  20758.032389   4001.437644  14313.750890    134.493474
PR05  25067.829303  -4271.644745  -2137.608932     90.355191
PR06  12456.095917 -11369.224505 -19149.613581    -40.628687
PR07  -5842.372672 -10053.905510 -22654.584307     33.310109
PR08 -20870.560655  -3893.254800 -14059.209338    -64.344306
PR09  10394.391982 -23070.848227  -2886.993764     47.322055
PR10   2031.743395 -22040.282201  12733.611581    -81.109219
PR11  -8388.119542  -8080.432857  22698.956242     42.224491
PR12 -13872.008103  11041.816214  18349.748208     17.693817
PR13 -10913.901310  22681.520720   4108.203083    -20.210598
PR14  -1218.057774  21343.228507 -13920.589257     76.008084
PR15   8772.264284   7434.294344 -22754.861425     97.168522
PR17  10960.771831  21101.256734  -9186.749774    513.916159
PR18  17298.416729  17149.012690   7687.289440    112.088780
PR19  14855.079949   5533.679523  19984.624750   -183.660708
PR20   2732.674424 -12838.874749  21867.184203    -67.766003
PR21 -11758.531044 -21257.928399   7807.648961   -289.720806
PR22 -17224.903486 -16675.149831  -8573.501840   -174.047465
PR23 -12243.895021    289.015142 -22382.036529    -35.527347
PR24  -2212.471889  13710.630163 -21379.324052     86.960848
EOF
